{"type": "FeatureCollection", "features": [ {"type": "Feature", "properties": {"norad_id": 67031, "name": "STARLINK-36150", "group": "last-30-days", "lat": -34.95613017252515, "lon": -39.01148627417934, "alt_km": 384.82260563000364, "timestamp": "2025-12-27T11:23:18.581786+00:00", "meta": {"OBJECT_NAME": "STARLINK-36150", "OBJECT_ID": "2025-294B", "EPOCH": "2025-12-27T04:00:01.998720", "MEAN_MOTION": 15.63015386, "ECCENTRICITY": 0.0001562, "INCLINATION": 42.999, "RA_OF_ASC_NODE": 94.2117, "ARG_OF_PERICENTER": 269.6163, "MEAN_ANOMALY": 34.0449, "EPHEMERIS_TYPE": 0, "CLASSIFICATION_TYPE": "U", "NORAD_CAT_ID": 67031, "ELEMENT_SET_NO": 999, "REV_AT_EPOCH": 261, "BSTAR": -0.023298, "MEAN_MOTION_DOT": -0.01922529, "MEAN_MOTION_DDOT": 0}, "tle": {"line1": "1 67031U 25294B   25361.16668980 -.01922529  00000+0 -23298-1 0  9996", "line2": "2 67031  42.9990  94.2117 0001562 269.6163  34.0449 15.63015386  2614"}}, "geometry": {"type": "Point", "coordinates": [-39.01148627417934, -34.95613017252515]}}, {"type": "Feature", "properties": {"norad_id": 67032, "name": "STARLINK-36131", "group": "last-30-days", "lat": -36.665259118330034, "lon": -34.605065332723235, "alt_km": 384.9067227144287, "timestamp": "2025-12-27T11:23:18.581796+00:00", "meta": {"OBJECT_NAME": "STARLINK-36131", "OBJECT_ID": "2025-294C", "EPOCH": "2025-12-27T04:00:01.998720", "MEAN_MOTION": 15.62998524, "ECCENTRICITY": 0.0001521, "INCLINATION": 42.999, "RA_OF_ASC_NODE": 94.2016, "ARG_OF_PERICENTER": 267.7505, "MEAN_ANOMALY": 39.8987, "EPHEMERIS_TYPE": 0, "CLASSIFICATION_TYPE": "U", "NORAD_CAT_ID": 67032, "ELEMENT_SET_NO": 999, "REV_AT_EPOCH": 242, "BSTAR": -0.023252, "MEAN_MOTION_DOT": -0.0191804, "MEAN_MOTION_DDOT": 0}, "tle": {"line1": "1 67032U 25294C   25361.16668980 -.01918040  00000+0 -23252-1 0  9990", "line2": "2 67032  42.9990  94.2016 0001521 267.7505  39.8987 15.62998524  2429"}}, "geometry": {"type": "Point", "coordinates": [-34.605065332723235, -36.665259118330034]}}, {"type": "Feature", "properties": {"norad_id": 67033, "name": "STARLINK-36137", "group": "last-30-days", "lat": -35.82776353703691, "lon": -36.839640277061726, "alt_km": 384.8242563965214, "timestamp": "2025-12-27T11:23:18.581806+00:00", "meta": {"OBJECT_NAME": "STARLINK-36137", "OBJECT_ID": "2025-294D", "EPOCH": "2025-12-27T04:00:01.998720", "MEAN_MOTION": 15.63006352, "ECCENTRICITY": 0.0001575, "INCLINATION": 42.9989, "RA_OF_ASC_NODE": 94.2069, "ARG_OF_PERICENTER": 267.5327, "MEAN_ANOMALY": 38.1143, "EPHEMERIS_TYPE": 0, "CLASSIFICATION_TYPE": "U", "NORAD_CAT_ID": 67033, "ELEMENT_SET_NO": 999, "REV_AT_EPOCH": 242, "BSTAR": -0.023225, "MEAN_MOTION_DOT": -0.0191663, "MEAN_MOTION_DDOT": 0}, "tle": {"line1": "1 67033U 25294D   25361.16668980 -.01916630  00000+0 -23225-1 0  9994", "line2": "2 67033  42.9989  94.2069 0001575 267.5327  38.1143 15.63006352  2421"}}, "geometry": {"type": "Point", "coordinates": [-36.839640277061726, -35.82776353703691]}}, {"type": "Feature", "properties": {"norad_id": 67034, "name": "STARLINK-36140", "group": "last-30-days", "lat": -37.47926261541498, "lon": -32.26448268603164, "alt_km": 384.9629915666019, "timestamp": "2025-12-27T11:23:18.581816+00:00", "meta": {"OBJECT_NAME": "STARLINK-36140", "OBJECT_ID": "2025-294E", "EPOCH": "2025-12-26T22:00:01.999584", "MEAN_MOTION": 15.64080595, "ECCENTRICITY": 0.00015735, "INCLINATION": 42.9993, "RA_OF_ASC_NODE": 95.6881, "ARG_OF_PERICENTER": 278.3499, "MEAN_ANOMALY": 62.4736, "EPHEMERIS_TYPE": 0, "CLASSIFICATION_TYPE": "U", "NORAD_CAT_ID": 67034, "ELEMENT_SET_NO": 999, "REV_AT_EPOCH": 238, "BSTAR": -0.023008729, "MEAN_MOTION_DOT": -0.01973992, "MEAN_MOTION_DDOT": 0}, "tle": {"line1": "1 67034U 25294E   25360.91668981 -.01973992  00000+0 -23009-1 0  9992", "line2": "2 67034  42.9993  95.6881 0001573 278.3499  62.4736 15.64080595  2387"}}, "geometry": {"type": "Point", "coordinates": [-32.26448268603164, -37.47926261541498]}}, {"type": "Feature", "properties": {"norad_id": 67035, "name": "STARLINK-36085", "group": "last-30-days", "lat": -38.969516734884444, "lon": -27.40876669033831, "alt_km": 385.13916756448543, "timestamp": "2025-12-27T11:23:18.581826+00:00", "meta": {"OBJECT_NAME": "STARLINK-36085", "OBJECT_ID": "2025-294F", "EPOCH": "2025-12-27T04:00:01.998720", "MEAN_MOTION": 15.62957865, "ECCENTRICITY": 0.00015, "INCLINATION": 42.9992, "RA_OF_ASC_NODE": 94.1863, "ARG_OF_PERICENTER": 271.7067, "MEAN_ANOMALY": 42.1403, "EPHEMERIS_TYPE": 0, "CLASSIFICATION_TYPE": "U", "NORAD_CAT_ID": 67035, "ELEMENT_SET_NO": 999, "REV_AT_EPOCH": 242, "BSTAR": -0.023341, "MEAN_MOTION_DOT": -0.01921769, "MEAN_MOTION_DDOT": 0}, "tle": {"line1": "1 67035U 25294F   25361.16668980 -.01921769  00000+0 -23341-1 0  9994", "line2": "2 67035  42.9992  94.1863 0001500 271.7067  42.1403 15.62957865  2421"}}, "geometry": {"type": "Point", "coordinates": [-27.40876669033831, -38.969516734884444]}}, {"type": "Feature", "properties": {"norad_id": 67036, "name": "STARLINK-36125", "group": "last-30-days", "lat": -38.249598294119814, "lon": -29.86088723827237, "alt_km": 385.050965472803, "timestamp": "2025-12-27T11:23:18.581838+00:00", "meta": {"OBJECT_NAME": "STARLINK-36125", "OBJECT_ID": "2025-294G", "EPOCH": "2025-12-27T04:00:01.998720", "MEAN_MOTION": 15.62972014, "ECCENTRICITY": 0.0001509, "INCLINATION": 42.999, "RA_OF_ASC_NODE": 94.1912, "ARG_OF_PERICENTER": 269.3844, "MEAN_ANOMALY": 42.3928, "EPHEMERIS_TYPE": 0, "CLASSIFICATION_TYPE": "U", "NORAD_CAT_ID": 67036, "ELEMENT_SET_NO": 999, "REV_AT_EPOCH": 261, "BSTAR": -0.023309, "MEAN_MOTION_DOT": -0.01920384, "MEAN_MOTION_DDOT": 0}, "tle": {"line1": "1 67036U 25294G   25361.16668980 -.01920384  00000+0 -23309-1 0  9991", "line2": "2 67036  42.9990  94.1912 0001509 269.3844  42.3928 15.62972014  2618"}}, "geometry": {"type": "Point", "coordinates": [-29.86088723827237, -38.249598294119814]}}, {"type": "Feature", "properties": {"norad_id": 67037, "name": "STARLINK-35732", "group": "last-30-days", "lat": -39.65210952441231, "lon": -24.847091893841835, "alt_km": 385.16594701321355, "timestamp": "2025-12-27T11:23:18.581850+00:00", "meta": {"OBJECT_NAME": "STARLINK-35732", "OBJECT_ID": "2025-294H", "EPOCH": "2025-12-27T04:00:01.998720", "MEAN_MOTION": 15.62939668, "ECCENTRICITY": 0.0001571, "INCLINATION": 42.9991, "RA_OF_ASC_NODE": 94.181, "ARG_OF_PERICENTER": 271.8548, "MEAN_ANOMALY": 44.1164, "EPHEMERIS_TYPE": 0, "CLASSIFICATION_TYPE": "U", "NORAD_CAT_ID": 67037, "ELEMENT_SET_NO": 999, "REV_AT_EPOCH": 253, "BSTAR": -0.023394, "MEAN_MOTION_DOT": -0.01924442, "MEAN_MOTION_DDOT": 0}, "tle": {"line1": "1 67037U 25294H   25361.16668980 -.01924442  00000+0 -23394-1 0  9995", "line2": "2 67037  42.9991  94.1810 0001571 271.8548  44.1164 15.62939668  2536"}}, "geometry": {"type": "Point", "coordinates": [-24.847091893841835, -39.65210952441231]}}, {"type": "Feature", "properties": {"norad_id": 67038, "name": "STARLINK-35775", "group": "last-30-days", "lat": -40.246113255218326, "lon": -22.373698494434105, "alt_km": 385.21425454822656, "timestamp": "2025-12-27T11:23:18.581860+00:00", "meta": {"OBJECT_NAME": "STARLINK-35775", "OBJECT_ID": "2025-294J", "EPOCH": "2025-12-27T04:00:01.998720", "MEAN_MOTION": 15.62927526, "ECCENTRICITY": 0.0001518, "INCLINATION": 42.999, "RA_OF_ASC_NODE": 94.1754, "ARG_OF_PERICENTER": 270.6852, "MEAN_ANOMALY": 47.2885, "EPHEMERIS_TYPE": 0, "CLASSIFICATION_TYPE": "U", "NORAD_CAT_ID": 67038, "ELEMENT_SET_NO": 999, "REV_AT_EPOCH": 253, "BSTAR": -0.023286, "MEAN_MOTION_DOT": -0.01915745, "MEAN_MOTION_DDOT": 0}, "tle": {"line1": "1 67038U 25294J   25361.16668980 -.01915745  00000+0 -23286-1 0  9992", "line2": "2 67038  42.9990  94.1754 0001518 270.6852  47.2885 15.62927526  2533"}}, "geometry": {"type": "Point", "coordinates": [-22.373698494434105, -40.246113255218326]}}, {"type": "Feature", "properties": {"norad_id": 67039, "name": "STARLINK-35705", "group": "last-30-days", "lat": -41.28165955852364, "lon": -17.243281460498725, "alt_km": 385.3286442423496, "timestamp": "2025-12-27T11:23:18.581870+00:00", "meta": {"OBJECT_NAME": "STARLINK-35705", "OBJECT_ID": "2025-294K", "EPOCH": "2025-12-27T04:00:01.998720", "MEAN_MOTION": 15.62904579, "ECCENTRICITY": 0.0001458, "INCLINATION": 42.9992, "RA_OF_ASC_NODE": 94.1656, "ARG_OF_PERICENTER": 270.2664, "MEAN_ANOMALY": 51.7644, "EPHEMERIS_TYPE": 0, "CLASSIFICATION_TYPE": "U", "NORAD_CAT_ID": 67039, "ELEMENT_SET_NO": 999, "REV_AT_EPOCH": 242, "BSTAR": -0.023282, "MEAN_MOTION_DOT": -0.01913881, "MEAN_MOTION_DDOT": 0}, "tle": {"line1": "1 67039U 25294K   25361.16668980 -.01913881  00000+0 -23282-1 0  9998", "line2": "2 67039  42.9992  94.1656 0001458 270.2664  51.7644 15.62904579  2421"}}, "geometry": {"type": "Point", "coordinates": [-17.243281460498725, -41.28165955852364]}}, {"type": "Feature", "properties": {"norad_id": 67040, "name": "STARLINK-35786", "group": "last-30-days", "lat": -40.80073355350256, "lon": -19.78722192325266, "alt_km": 385.2260806401191, "timestamp": "2025-12-27T11:23:18.581880+00:00", "meta": {"OBJECT_NAME": "STARLINK-35786", "OBJECT_ID": "2025-294L", "EPOCH": "2025-12-27T04:00:01.998720", "MEAN_MOTION": 15.62917344, "ECCENTRICITY": 0.0001597, "INCLINATION": 42.9992, "RA_OF_ASC_NODE": 94.1709, "ARG_OF_PERICENTER": 271.666, "MEAN_ANOMALY": 48.3715, "EPHEMERIS_TYPE": 0, "CLASSIFICATION_TYPE": "U", "NORAD_CAT_ID": 67040, "ELEMENT_SET_NO": 999, "REV_AT_EPOCH": 242, "BSTAR": -0.023404, "MEAN_MOTION_DOT": -0.01923638, "MEAN_MOTION_DDOT": 0}, "tle": {"line1": "1 67040U 25294L   25361.16668980 -.01923638  00000+0 -23404-1 0  9997", "line2": "2 67040  42.9992  94.1709 0001597 271.6660  48.3715 15.62917344  2422"}}, "geometry": {"type": "Point", "coordinates": [-19.78722192325266, -40.80073355350256]}}]}